IRIDIUM 106             
1 41917U 17003A   24350.85445946  .00000631  00000+0  21816-3 0  9992
2 41917  86.3958 317.6687 0001869  87.3778 272.7632 14.34223786414610
IRIDIUM 103             
1 41918U 17003B   24350.63247890  .00000391  00000+0  13254-3 0  9997
2 41918  86.3957 317.6627 0002199  68.0972 292.0457 14.34218026414614
IRIDIUM 109             
1 41919U 17003C   24350.22020919  .00000637  00000+0  22053-3 0  9994
2 41919  86.3961 317.8856 0002457  84.3414 275.8062 14.34216783414535
IRIDIUM 102             
1 41920U 17003D   24350.18850180  .00000618  00000+0  21365-3 0  9996
2 41920  86.3958 317.8341 0002280  88.7233 271.4224 14.34219737414593
IRIDIUM 105             
1 41921U 17003E   24350.08946988  .00000599  00000+0  20688-3 0  9993
2 41921  86.3960 286.2954 0002050  84.2196 275.9233 14.34219129416439
IRIDIUM 104             
1 41922U 17003F   24350.41048819  .00000465  00000+0  15885-3 0  9992
2 41922  86.3960 317.7754 0002753  80.6705 279.4802 14.34216803414619
IRIDIUM 114             
1 41923U 17003G   24350.76567323  .00000527  00000+0  18128-3 0  9999
2 41923  86.3959 317.6123 0002158  80.1413 280.0026 14.34220311414667
IRIDIUM 108             
1 41924U 17003H   24350.09627794  .00000215  00000+0  69723-4 0  9997
2 41924  86.3957 286.2057 0001982  87.3640 272.7783 14.34218650416425
